OBJECT_NAME,OBJECT_ID,EPOCH,MEAN_MOTION,ECCENTRICITY,INCLINATION,RA_OF_ASC_NODE,ARG_OF_PERICENTER,MEAN_ANOMALY,EPHEMERIS_TYPE,CLASSIFICATION_TYPE,NORAD_CAT_ID,ELEMENT_SET_NO,REV_AT_EPOCH,BSTAR,MEAN_MOTION_DOT,MEAN_MOTION_DDOT
QIANFAN-153,2026-108J,2026-06-03T21:03:27.540576,14.19639861,.00159474,89.0120,23.6929,156.8245,203.3667,0,U,69112,999,246,.15292141E-3,.338E-5,0
QIANFAN-154,2026-108K,2026-06-03T20:55:28.720416,14.20187934,.00156334,89.0125,23.6927,154.7015,205.4944,0,U,69113,999,246,.15181719E-3,.339E-5,0
QIANFAN-155,2026-108L,2026-06-03T20:57:36.275328,14.19532817,.00163562,89.0124,23.6930,155.2448,204.9530,0,U,69114,999,246,.39100108E-4,.97E-6,0
QIANFAN-156,2026-108M,2026-06-03T20:51:04.539456,14.20955719,.00159615,89.0127,23.6927,156.3148,203.8781,0,U,69115,999,246,.14875522E-3,.337E-5,0
QIANFAN-157,2026-108N,2026-06-03T20:25:35.827104,14.24906112,.00162408,89.0124,23.6896,161.3741,198.8049,0,U,69116,999,246,.15964254E-3,.388E-5,0
QIANFAN-158,2026-108P,2026-06-03T20:44:39.847776,14.21845138,.00158966,89.0123,23.6914,157.6844,202.5042,0,U,69117,999,246,.15746114E-3,.362E-5,0
QIANFAN-159,2026-108Q,2026-06-03T20:40:16.834080,14.22291195,.00156016,89.0122,23.6908,157.5959,202.5917,0,U,69118,999,246,.56508439E-4,.14E-5,0
QIANFAN-160,2026-108R,2026-06-03T20:36:54.834336,14.22715598,.00153171,89.0124,23.6908,157.3955,202.7914,0,U,69119,999,246,.39585368E-4,.103E-5,0
QIANFAN-161,2026-108S,2026-06-03T20:33:20.448288,14.23186776,.00153181,89.0124,23.6903,158.1270,202.0579,0,U,69120,999,246,.15463933E-3,.364E-5,0
QIANFAN-162,2026-108T,2026-06-03T20:31:38.756352,14.23622146,.0015158,89.0123,23.6901,159.3584,200.8224,0,U,69121,999,246,.15492076E-3,.368E-5,0
SMILE,2026-109A,2026-05-24T15:40:35.120928,14.57062785,.00091232,70.0007,229.2745,259.5159,100.4951,0,U,69123,999,80,-.42378883E-3,-.1976E-4,0
STARLINK-37726,2026-110A,2026-06-03T22:00:01.999584,15.61381955,.00016005,97.2847,350.9860,104.7204,140.5009,0,U,69124,999,352,-.17442498E-1,-.1319487E-1,0
STARLINK-37722,2026-110B,2026-06-03T22:00:01.999584,15.75899130,.00013911,97.2849,351.0512,83.0540,313.7145,0,U,69125,999,357,-.13695186E-1,-.1844165E-1,0
STARLINK-37715,2026-110C,2026-06-03T20:20:16.336320,15.80903154,.00012369,97.2843,350.9779,80.5417,279.5991,0,U,69126,999,353,.11360909E-2,.224043E-2,0
STARLINK-37706,2026-110D,2026-06-03T20:19:11.452512,15.80863196,.00012605,97.2843,350.9787,100.7851,259.3559,0,U,69127,999,353,.78688481E-3,.153596E-2,0
STARLINK-37723,2026-110E,2026-06-03T20:18:06.529824,15.80879071,.00011942,97.2843,350.9797,95.4177,264.7228,0,U,69128,999,353,.82601788E-3,.161506E-2,0
STARLINK-37720,2026-110F,2026-06-03T22:00:01.999584,15.62747790,.00016598,97.2843,351.0060,102.9773,188.8939,0,U,69129,999,352,-.32028711E-1,-.2503122E-1,0
STARLINK-37533,2026-110G,2026-06-03T20:14:51.734976,15.80882800,.00013887,97.2843,350.9834,79.0428,281.0996,0,U,69130,999,353,.91696054E-3,.179711E-2,0
STARLINK-37530,2026-110H,2026-06-03T21:44:55.838976,15.80879632,.00008459,97.2841,351.0513,102.4662,257.6701,0,U,69131,999,354,.87205496E-3,.1707E-2,0
STARLINK-37660,2026-110J,2026-06-03T12:37:09.901920,15.79927928,.00020894,97.2831,350.6500,143.9790,216.1619,0,U,69132,999,348,-.28001047E-2,-.487555E-2,0
STARLINK-37633,2026-110K,2026-06-03T17:09:31.217760,15.79860861,.00017608,97.2832,350.8514,103.9366,256.2097,0,U,69133,999,351,-.44729297E-2,-.753182E-2,0
STARLINK-37361,2026-110L,2026-06-03T20:10:31.873152,15.80863877,.00012253,97.2839,350.9877,112.0880,248.0519,0,U,69134,999,353,.62195227E-3,.120919E-2,0
STARLINK-37372,2026-110M,2026-06-03T20:09:26.842464,15.80910782,.00010121,97.2837,350.9885,88.1081,272.0303,0,U,69135,999,353,.12736528E-2,.252094E-2,0
STARLINK-37531,2026-110N,2026-06-03T20:08:22.121088,15.80888718,.00010782,97.2839,350.9895,79.8882,280.2508,0,U,69136,999,353,.10187004E-2,.200193E-2,0
STARLINK-37662,2026-110P,2026-06-03T20:07:21.072576,15.80405420,.00015561,97.2837,350.9908,85.9901,274.1545,0,U,69137,999,353,-.27426792E-2,-.48797E-2,0
STARLINK-37658,2026-110Q,2026-06-03T22:00:01.999584,15.72474760,.0001311,97.2854,351.0628,92.8116,331.3563,0,U,69138,999,352,-.74652342E-2,-.892804E-2,0
STARLINK-37659,2026-110R,2026-06-03T22:00:01.999584,15.72847073,.00014917,97.2853,351.0586,62.7065,349.8977,0,U,69139,999,352,-.20746908E-1,-.240636E-1,0
STARLINK-37653,2026-110S,2026-06-03T22:00:01.999584,15.71746874,.00014811,97.2853,351.0617,75.4383,343.8640,0,U,69140,999,352,-.22123752E-1,-.2497247E-1,0
STARLINK-37654,2026-110T,2026-06-03T20:02:57.471360,15.80871977,.00011541,97.2836,350.9948,107.3706,252.7689,0,U,69141,999,353,.77035459E-3,.15037E-2,0
