QIANFAN-153             
1 69112U 26108J   26154.87740209  .00000338  00000+0  15292-3 0  9996
2 69112  89.0120  23.6929 0015947 156.8245 203.3667 14.19639861  2466
QIANFAN-154             
1 69113U 26108K   26154.87186019  .00000339  00000+0  15182-3 0  9999
2 69113  89.0125  23.6927 0015633 154.7015 205.4944 14.20187934  2466
QIANFAN-155             
1 69114U 26108L   26154.87333652  .00000097  00000+0  39100-4 0  9995
2 69114  89.0124  23.6930 0016356 155.2448 204.9530 14.19532817  2466
QIANFAN-156             
1 69115U 26108M   26154.86880254  .00000337  00000+0  14876-3 0  9999
2 69115  89.0127  23.6927 0015961 156.3148 203.8781 14.20955719  2464
QIANFAN-157             
1 69116U 26108N   26154.85110911  .00000388  00000+0  15964-3 0  9990
2 69116  89.0124  23.6896 0016240 161.3741 198.8049 14.24906112  2460
QIANFAN-158             
1 69117U 26108P   26154.86435009  .00000362  00000+0  15746-3 0  9990
2 69117  89.0123  23.6914 0015896 157.6844 202.5042 14.21845138  2462
QIANFAN-159             
1 69118U 26108Q   26154.86130595  .00000140  00000+0  56508-4 0  9999
2 69118  89.0122  23.6908 0015601 157.5959 202.5917 14.22291195  2465
QIANFAN-160             
1 69119U 26108R   26154.85896799  .00000103  00000+0  39585-4 0  9999
2 69119  89.0124  23.6908 0015317 157.3955 202.7914 14.22715598  2463
QIANFAN-161             
1 69120U 26108S   26154.85648667  .00000364  00000+0  15464-3 0  9998
2 69120  89.0124  23.6903 0015318 158.1270 202.0579 14.23186776  2461
QIANFAN-162             
1 69121U 26108T   26154.85530968  .00000368  00000+0  15492-3 0  9998
2 69121  89.0123  23.6901 0015158 159.3584 200.8224 14.23622146  2461
SMILE                   
1 69123U 26109A   26144.65318427 -.00001976  00000+0 -42379-3 0  9994
2 69123  70.0007 229.2745 0009123 259.5159 100.4951 14.57062785   802
STARLINK-37726          
1 69124U 26110A   26154.91668981 -.01319487  00000+0 -17442-1 0  9991
2 69124  97.2847 350.9860 0001600 104.7204 140.5009 15.61381955  3520
STARLINK-37722          
1 69125U 26110B   26154.91668981 -.01844165  00000+0 -13695-1 0  9994
2 69125  97.2849 351.0512 0001391  83.0540 313.7145 15.75899130  3572
STARLINK-37715          
1 69126U 26110C   26154.84741130  .00224043  00000+0  11361-2 0  9998
2 69126  97.2843 350.9779 0001236  80.5417 279.5991 15.80903154  3535
STARLINK-37706          
1 69127U 26110D   26154.84666033  .00153596  00000+0  78688-3 0  9997
2 69127  97.2843 350.9787 0001260 100.7851 259.3559 15.80863196  3536
STARLINK-37723          
1 69128U 26110E   26154.84590891  .00161506  00000+0  82602-3 0  9997
2 69128  97.2843 350.9797 0001194  95.4177 264.7228 15.80879071  3537
STARLINK-37720          
1 69129U 26110F   26154.91668981 -.02503122  00000+0 -32029-1 0  9996
2 69129  97.2843 351.0060 0001659 102.9773 188.8939 15.62747790  3521
STARLINK-37533          
1 69130U 26110G   26154.84365434  .00179711  00000+0  91696-3 0  9993
2 69130  97.2843 350.9834 0001388  79.0428 281.0996 15.80882800  3532
STARLINK-37530          
1 69131U 26110H   26154.90620184  .00170700  00000+0  87205-3 0  9997
2 69131  97.2841 351.0513 0000845 102.4662 257.6701 15.80879632  3548
STARLINK-37660          
1 69132U 26110J   26154.52580905 -.00487555  00000+0 -28001-2 0  9991
2 69132  97.2831 350.6500 0002089 143.9790 216.1619 15.79927928  3484
STARLINK-37633          
1 69133U 26110K   26154.71494465 -.00753182  00000+0 -44729-2 0  9995
2 69133  97.2832 350.8514 0001760 103.9366 256.2097 15.79860861  3514
STARLINK-37361          
1 69134U 26110L   26154.84064668  .00120919  00000+0  62195-3 0  9990
2 69134  97.2839 350.9877 0001225 112.0880 248.0519 15.80863877  3535
STARLINK-37372          
1 69135U 26110M   26154.83989401  .00252094  00000+0  12737-2 0  9997
2 69135  97.2837 350.9885 0001012  88.1081 272.0303 15.80910782  3539
STARLINK-37531          
1 69136U 26110N   26154.83914492  .00200193  00000+0  10187-2 0  9996
2 69136  97.2839 350.9895 0001078  79.8882 280.2508 15.80888718  3532
STARLINK-37662          
1 69137U 26110P   26154.83843834 -.00487970  00000+0 -27427-2 0  9995
2 69137  97.2837 350.9908 0001556  85.9901 274.1545 15.80405420  3535
STARLINK-37658          
1 69138U 26110Q   26154.91668981 -.00892804  00000+0 -74652-2 0  9991
2 69138  97.2854 351.0628 0001311  92.8116 331.3563 15.72474760  3529
STARLINK-37659          
1 69139U 26110R   26154.91668981 -.02406360  00000+0 -20747-1 0  9997
2 69139  97.2853 351.0586 0001491  62.7065 349.8977 15.72847073  3524
STARLINK-37653          
1 69140U 26110S   26154.91668981 -.02497247  00000+0 -22124-1 0  9994
2 69140  97.2853 351.0617 0001481  75.4383 343.8640 15.71746874  3521
STARLINK-37654          
1 69141U 26110T   26154.83538740  .00150370  00000+0  77035-3 0  9997
2 69141  97.2836 350.9948 0001154 107.3706 252.7689 15.80871977  3534
